{
  "type": "FeatureCollection",
  "features": [
    {
      "type": "Feature",
      "properties": {
        "norad_id": 46734,
        "name": "IRIDIUM 33 DEB",
        "group": "iridium-33-debris",
        "lat": 74.2644255116564,
        "lon": 13.609995585494348,
        "alt_km": 758.4001790275761,
        "timestamp": "2025-12-18T19:29:52.928555+00:00",
        "meta_object_name": "IRIDIUM 33 DEB",
        "meta_object_id": "1997-051ABR",
        "meta_epoch": "2025-12-16T07:16:35.707584",
        "meta_mean_motion": 14.41911222,
        "meta_eccentricity": 0.00381217,
        "meta_inclination": 86.2633,
        "meta_ra_of_asc_node": 1.2995,
        "meta_arg_of_pericenter": 323.6514,
        "meta_mean_anomaly": 53.8246,
        "meta_ephemeris_type": 0,
        "meta_classification_type": "U",
        "meta_norad_cat_id": 46734,
        "meta_element_set_no": 999,
        "meta_rev_at_epoch": 63062,
        "meta_bstar": 0.00075238,
        "meta_mean_motion_dot": 2.503e-05,
        "meta_mean_motion_ddot": 0,
        "tle_line1": "1 46734U 97051ABR 25350.30319106  .00002503  00000+0  75238-3 0  9991",
        "tle_line2": "2 46734  86.2633   1.2995 0038121 323.6514  53.8246 14.41911222630621"
      },
      "geometry": {
        "type": "Point",
        "coordinates": [
          13.609995585494348,
          74.2644255116564
        ]
      }
    },
    {
      "type": "Feature",
      "properties": {
        "norad_id": 46965,
        "name": "IRIDIUM 33 DEB",
        "group": "iridium-33-debris",
        "lat": -73.16733442418078,
        "lon": 170.23479070534796,
        "alt_km": 692.9282051998171,
        "timestamp": "2025-12-18T19:29:52.928566+00:00",
        "meta_object_name": "IRIDIUM 33 DEB",
        "meta_object_id": "1997-051ABX",
        "meta_epoch": "2025-12-17T22:44:05.593344",
        "meta_mean_motion": 14.6033543,
        "meta_eccentricity": 0.00175877,
        "meta_inclination": 86.3353,
        "meta_ra_of_asc_node": 338.388,
        "meta_arg_of_pericenter": 314.7846,
        "meta_mean_anomaly": 73.669,
        "meta_ephemeris_type": 0,
        "meta_classification_type": "U",
        "meta_norad_cat_id": 46965,
        "meta_element_set_no": 999,
        "meta_rev_at_epoch": 62344,
        "meta_bstar": 0.00066145351,
        "meta_mean_motion_dot": 3.224e-05,
        "meta_mean_motion_ddot": 0,
        "tle_line1": "1 46965U 97051ABX 25351.94728696  .00003224  00000+0  66145-3 0  9994",
        "tle_line2": "2 46965  86.3353 338.3880 0017587 314.7846  73.6690 14.60335430623443"
      },
      "geometry": {
        "type": "Point",
        "coordinates": [
          170.23479070534796,
          -73.16733442418078
        ]
      }
    },
    {
      "type": "Feature",
      "properties": {
        "norad_id": 46971,
        "name": "IRIDIUM 33 DEB",
        "group": "iridium-33-debris",
        "lat": 80.24573669417715,
        "lon": -7.8689849945322665,
        "alt_km": 566.3636160905307,
        "timestamp": "2025-12-18T19:29:52.928576+00:00",
        "meta_object_name": "IRIDIUM 33 DEB",
        "meta_object_id": "1997-051ACD",
        "meta_epoch": "2025-12-18T04:46:20.926848",
        "meta_mean_motion": 14.98336604,
        "meta_eccentricity": 0.00026432,
        "meta_inclination": 86.3383,
        "meta_ra_of_asc_node": 330.5483,
        "meta_arg_of_pericenter": 282.6501,
        "meta_mean_anomaly": 90.914,
        "meta_ephemeris_type": 0,
        "meta_classification_type": "U",
        "meta_norad_cat_id": 46971,
        "meta_element_set_no": 999,
        "meta_rev_at_epoch": 64312,
        "meta_bstar": 0.0022892837,
        "meta_mean_motion_dot": 0.00027356,
        "meta_mean_motion_ddot": 0,
        "tle_line1": "1 46971U 97051ACD 25352.19885332  .00027356  00000+0  22893-2 0  9993",
        "tle_line2": "2 46971  86.3383 330.5483 0002643 282.6501  90.9140 14.98336604643128"
      },
      "geometry": {
        "type": "Point",
        "coordinates": [
          -7.8689849945322665,
          80.24573669417715
        ]
      }
    },
    {
      "type": "Feature",
      "properties": {
        "norad_id": 46974,
        "name": "IRIDIUM 33 DEB",
        "group": "iridium-33-debris",
        "lat": -16.899198987187273,
        "lon": 101.49683016537993,
        "alt_km": 816.4299209357287,
        "timestamp": "2025-12-18T19:29:52.928587+00:00",
        "meta_object_name": "IRIDIUM 33 DEB",
        "meta_object_id": "1997-051ACG",
        "meta_epoch": "2025-12-14T14:09:41.074272",
        "meta_mean_motion": 14.44439168,
        "meta_eccentricity": 0.00956816,
        "meta_inclination": 86.2983,
        "meta_ra_of_asc_node": 104.4675,
        "meta_arg_of_pericenter": 181.0289,
        "meta_mean_anomaly": 179.0732,
        "meta_ephemeris_type": 0,
        "meta_classification_type": "U",
        "meta_norad_cat_id": 46974,
        "meta_element_set_no": 999,
        "meta_rev_at_epoch": 57535,
        "meta_bstar": 0.0034715296,
        "meta_mean_motion_dot": 0.00012692,
        "meta_mean_motion_ddot": 0,
        "tle_line1": "1 46974U 97051ACG 25348.59005873  .00012692  00000+0  34715-2 0  9992",
        "tle_line2": "2 46974  86.2983 104.4675 0095681 181.0289 179.0732 14.44439168575351"
      },
      "geometry": {
        "type": "Point",
        "coordinates": [
          101.49683016537993,
          -16.899198987187273
        ]
      }
    },
    {
      "type": "Feature",
      "properties": {
        "norad_id": 46979,
        "name": "IRIDIUM 33 DEB",
        "group": "iridium-33-debris",
        "lat": -80.14150623520311,
        "lon": -112.61691543970213,
        "alt_km": 595.6478038898131,
        "timestamp": "2025-12-18T19:29:52.928598+00:00",
        "meta_object_name": "IRIDIUM 33 DEB",
        "meta_object_id": "1997-051ACM",
        "meta_epoch": "2025-12-17T21:22:35.876928",
        "meta_mean_motion": 14.8988445,
        "meta_eccentricity": 0.00279352,
        "meta_inclination": 86.3335,
        "meta_ra_of_asc_node": 46.1582,
        "meta_arg_of_pericenter": 204.5568,
        "meta_mean_anomaly": 155.433,
        "meta_ephemeris_type": 0,
        "meta_classification_type": "U",
        "meta_norad_cat_id": 46979,
        "meta_element_set_no": 999,
        "meta_rev_at_epoch": 35505,
        "meta_bstar": 0.0030814972,
        "meta_mean_motion_dot": 0.00029954,
        "meta_mean_motion_ddot": 0,
        "tle_line1": "1 46979U 97051ACM 25351.89069302  .00029954  00000+0  30815-2 0  9997",
        "tle_line2": "2 46979  86.3335  46.1582 0027935 204.5568 155.4330 14.89884450355057"
      },
      "geometry": {
        "type": "Point",
        "coordinates": [
          -112.61691543970213,
          -80.14150623520311
        ]
      }
    }
  ]
}